[{"OBJECT_NAME":"STARLINK-2536","OBJECT_ID":"2021-036AL","EPOCH":"2026-03-10T00:00:02.999808","MEAN_MOTION":15.25636252,"ECCENTRICITY":7.57e-5,"INCLINATION":53.142,"RA_OF_ASC_NODE":89.5333,"ARG_OF_PERICENTER":115.4986,"MEAN_ANOMALY":131.3346,"EPHEMERIS_TYPE":0,"CLASSIFICATION_TYPE":"U","NORAD_CAT_ID":48310,"ELEMENT_SET_NO":999,"REV_AT_EPOCH":579,"BSTAR":0.064824603,"MEAN_MOTION_DOT":0.01836196,"MEAN_MOTION_DDOT":0},{"OBJECT_NAME":"OBJECT A","OBJECT_ID":"2023-189A","EPOCH":"2026-03-09T22:59:06.381600","MEAN_MOTION":15.32403275,"ECCENTRICITY":0.00094831,"INCLINATION":97.4458,"RA_OF_ASC_NODE":86.5997,"ARG_OF_PERICENTER":249.5377,"MEAN_ANOMALY":110.4847,"EPHEMERIS_TYPE":0,"CLASSIFICATION_TYPE":"U","NORAD_CAT_ID":58502,"ELEMENT_SET_NO":999,"REV_AT_EPOCH":12601,"BSTAR":0.00019874471,"MEAN_MOTION_DOT":6.146e-5,"MEAN_MOTION_DDOT":0}]
